start=new Date('2023-04-06T00:00:00.000Z').valueOf();
sats=[{"SITE":"AFETR","ARG_OF_PERICENTER":"102.2570","INCLINATION":"53.0530","PERIOD":"95.592","MEAN_ANOMALY":"257.8583","MEAN_ELEMENT_THEORY":"SGP4","NORAD_CAT_ID":"46768","FILE":"3881153","MEAN_MOTION_DDOT":"0.0000000000000","OBJECT_TYPE":"PAYLOAD","EPHEMERIS_TYPE":"0","RA_OF_ASC_NODE":"95.5370","TLE_LINE1":"1 46768U 20074AF  23095.69134260  .00009341  00000-0  64519-3 0  9999","TIME_SYSTEM":"UTC","APOAPSIS":"548.239","MEAN_MOTION_DOT":"0.00009341","CENTER_NAME":"EARTH","ECCENTRICITY":"0.00014670","REV_AT_EPOCH":"13534","DECAY_DATE":null,"PERIAPSIS":"546.207","COUNTRY_CODE":"US","MEAN_MOTION":"15.06397003","TLE_LINE2":"2 46768  53.0530  95.5370 0001467 102.2570 257.8583 15.06397003135341","OBJECT_NAME":"STARLINK-1918","REF_FRAME":"TEME","GP_ID":"229567501","RCS_SIZE":"LARGE","ELEMENT_SET_NO":"999","LAUNCH_DATE":"2020-10-24","EPOCH":"2023-04-05T16:35:32.000640","SEMIMAJOR_AXIS":"6925.358","BSTAR":"0.00064519000000","OBJECT_ID":"2020-074AF","CLASSIFICATION_TYPE":"U"},{"ECCENTRICITY":"0.00015510","REV_AT_EPOCH":"13533","DECAY_DATE":null,"PERIAPSIS":"546.172","CENTER_NAME":"EARTH","COUNTRY_CODE":"US","MEAN_MOTION":"15.06389431","TLE_LINE2":"2 46770  53.0534  96.0531 0001551 113.0947 247.0206 15.06389431135333","SEMIMAJOR_AXIS":"6925.381","OBJECT_NAME":"STARLINK-1932","GP_ID":"229568234","RCS_SIZE":"LARGE","REF_FRAME":"TEME","LAUNCH_DATE":"2020-10-24","ELEMENT_SET_NO":"999","EPOCH":"2023-04-05T16:46:14.706912","OBJECT_ID":"2020-074AH","CLASSIFICATION_TYPE":"U","BSTAR":"0.00013390000000","ARG_OF_PERICENTER":"113.0947","INCLINATION":"53.0534","PERIOD":"95.593","MEAN_ANOMALY":"247.0206","NORAD_CAT_ID":"46770","MEAN_ELEMENT_THEORY":"SGP4","SITE":"AFETR","OBJECT_TYPE":"PAYLOAD","EPHEMERIS_TYPE":"0","RA_OF_ASC_NODE":"96.0531","FILE":"3881153","MEAN_MOTION_DDOT":"0.0000000000000","TLE_LINE1":"1 46770U 20074AH  23095.69878133  .00001713  00000-0  13390-3 0  9992","APOAPSIS":"548.320","MEAN_MOTION_DOT":"0.00001713","TIME_SYSTEM":"UTC"},{"LAUNCH_DATE":"2020-10-24","ELEMENT_SET_NO":"999","EPOCH":"2023-04-05T05:36:00.010080","OBJECT_NAME":"STARLINK-1936","GP_ID":"229533344","REF_FRAME":"TEME","RCS_SIZE":"LARGE","SEMIMAJOR_AXIS":"6925.347","BSTAR":"0.00032778000000","CLASSIFICATION_TYPE":"U","OBJECT_ID":"2020-074AK","CENTER_NAME":"EARTH","DECAY_DATE":null,"PERIAPSIS":"546.342","ECCENTRICITY":"0.00012550","REV_AT_EPOCH":"13527","TLE_LINE2":"2 46772  53.0530  97.5811 0001255 100.3650 259.7480 15.06400646135278","COUNTRY_CODE":"US","MEAN_MOTION":"15.06400646","TLE_LINE1":"1 46772U 20074AK  23095.23333345  .00004604  00000-0  32778-3 0  9998","TIME_SYSTEM":"UTC","APOAPSIS":"548.081","MEAN_MOTION_DOT":"0.00004604","SITE":"AFETR","MEAN_ANOMALY":"259.7480","MEAN_ELEMENT_THEORY":"SGP4","NORAD_CAT_ID":"46772","ARG_OF_PERICENTER":"100.3650","PERIOD":"95.592","INCLINATION":"53.0530","MEAN_MOTION_DDOT":"0.0000000000000","FILE":"3880853","EPHEMERIS_TYPE":"0","RA_OF_ASC_NODE":"97.5811","OBJECT_TYPE":"PAYLOAD"},{"TLE_LINE1":"1 46774U 20074AM  23095.87065845  .00980793  00000-0  59445-2 0  9998","APOAPSIS":"351.335","MEAN_MOTION_DOT":"0.00980793","TIME_SYSTEM":"UTC","MEAN_ANOMALY":"220.1466","NORAD_CAT_ID":"46774","MEAN_ELEMENT_THEORY":"SGP4","ARG_OF_PERICENTER":"140.0217","PERIOD":"91.449","INCLINATION":"53.0391","SITE":"AFETR","EPHEMERIS_TYPE":"0","RA_OF_ASC_NODE":"42.8346","OBJECT_TYPE":"PAYLOAD","FILE":"3881153","MEAN_MOTION_DDOT":"0.0000000000000","SEMIMAJOR_AXIS":"6723.790","LAUNCH_DATE":"2020-10-24","EPOCH":"2023-04-05T20:53:44.890080","ELEMENT_SET_NO":"999","OBJECT_NAME":"STARLINK-1939","GP_ID":"229566750","REF_FRAME":"TEME","RCS_SIZE":"LARGE","CLASSIFICATION_TYPE":"U","OBJECT_ID":"2020-074AM","BSTAR":"0.00594450000000","DECAY_DATE":null,"PERIAPSIS":"339.976","ECCENTRICITY":"0.00084470","REV_AT_EPOCH":"13611","CENTER_NAME":"EARTH","TLE_LINE2":"2 46774  53.0391  42.8346 0008447 140.0217 220.1466 15.74640808136112","MEAN_MOTION":"15.74640808","COUNTRY_CODE":"US"},{"SEMIMAJOR_AXIS":"6925.359","LAUNCH_DATE":"2020-10-24","EPOCH":"2023-04-05T15:53:44.649312","ELEMENT_SET_NO":"999","OBJECT_NAME":"STARLINK-1798","GP_ID":"229568001","REF_FRAME":"TEME","RCS_SIZE":"LARGE","CLASSIFICATION_TYPE":"U","OBJECT_ID":"2020-074AS","BSTAR":"0.00121950000000","DECAY_DATE":null,"PERIAPSIS":"546.268","ECCENTRICITY":"0.00013800","REV_AT_EPOCH":"13568","CENTER_NAME":"EARTH","TLE_LINE2":"2 46779  53.0528  70.6648 0001380  86.7731 273.3415 15.06396693135689","MEAN_MOTION":"15.06396693","COUNTRY_CODE":"US","TLE_LINE1":"1 46779U 20074AS  23095.66232233  .00017928  00000-0  12195-2 0  9999","APOAPSIS":"548.179","MEAN_MOTION_DOT":"0.00017928","TIME_SYSTEM":"UTC","MEAN_ANOMALY":"273.3415","MEAN_ELEMENT_THEORY":"SGP4","NORAD_CAT_ID":"46779","ARG_OF_PERICENTER":"86.7731","PERIOD":"95.592","INCLINATION":"53.0528","SITE":"AFETR","EPHEMERIS_TYPE":"0","RA_OF_ASC_NODE":"70.6648","OBJECT_TYPE":"PAYLOAD","MEAN_MOTION_DDOT":"0.0000000000000","FILE":"3881153"},{"BSTAR":"0.00088721000000","OBJECT_ID":"2020-074AT","CLASSIFICATION_TYPE":"U","GP_ID":"229544676","REF_FRAME":"TEME","RCS_SIZE":"LARGE","OBJECT_NAME":"STARLINK-1832","LAUNCH_DATE":"2020-10-24","ELEMENT_SET_NO":"999","EPOCH":"2023-04-05T09:15:39.575808","SEMIMAJOR_AXIS":"6925.371","COUNTRY_CODE":"US","MEAN_MOTION":"15.06392541","TLE_LINE2":"2 46780  53.0529  71.9060 0000851  83.1528 276.9557 15.06392541135371","CENTER_NAME":"EARTH","REV_AT_EPOCH":"13537","ECCENTRICITY":"0.00008510","PERIAPSIS":"546.647","DECAY_DATE":null,"TIME_SYSTEM":"UTC","MEAN_MOTION_DOT":"0.00012955","APOAPSIS":"547.826","TLE_LINE1":"1 46780U 20074AT  23095.38587472  .00012955  00000-0  88721-3 0  9992","MEAN_MOTION_DDOT":"0.0000000000000","FILE":"3881013","OBJECT_TYPE":"PAYLOAD","RA_OF_ASC_NODE":"71.9060","EPHEMERIS_TYPE":"0","SITE":"AFETR","PERIOD":"95.593","INCLINATION":"53.0529","ARG_OF_PERICENTER":"83.1528","MEAN_ELEMENT_THEORY":"SGP4","NORAD_CAT_ID":"46780","MEAN_ANOMALY":"276.9557"},{"TLE_LINE1":"1 46781U 20074AU  23095.66878109  .00018968  00000-0  12881-2 0  9997","TIME_SYSTEM":"UTC","APOAPSIS":"547.904","MEAN_MOTION_DOT":"0.00018968","SITE":"AFETR","ARG_OF_PERICENTER":"120.8233","INCLINATION":"53.0528","PERIOD":"95.591","MEAN_ANOMALY":"239.2863","NORAD_CAT_ID":"46781","MEAN_ELEMENT_THEORY":"SGP4","MEAN_MOTION_DDOT":"0.0000000000000","FILE":"3881153","OBJECT_TYPE":"PAYLOAD","EPHEMERIS_TYPE":"0","RA_OF_ASC_NODE":"80.6366","OBJECT_NAME":"STARLINK-1834","GP_ID":"229566501","RCS_SIZE":"LARGE","REF_FRAME":"TEME","EPOCH":"2023-04-05T16:03:02.686176","LAUNCH_DATE":"2020-10-24","ELEMENT_SET_NO":"999","SEMIMAJOR_AXIS":"6925.284","BSTAR":"0.00128810000000","OBJECT_ID":"2020-074AU","CLASSIFICATION_TYPE":"U","CENTER_NAME":"EARTH","ECCENTRICITY":"0.00010890","REV_AT_EPOCH":"13555","DECAY_DATE":null,"PERIAPSIS":"546.395","MEAN_MOTION":"15.06420912","COUNTRY_CODE":"US","TLE_LINE2":"2 46781  53.0528  80.6366 0001089 120.8233 239.2863 15.06420912135559"},{"FILE":"3880853","MEAN_MOTION_DDOT":"0.0000000000000","EPHEMERIS_TYPE":"0","RA_OF_ASC_NODE":"71.9561","OBJECT_TYPE":"PAYLOAD","SITE":"AFETR","MEAN_ANOMALY":"283.0269","NORAD_CAT_ID":"46782","MEAN_ELEMENT_THEORY":"SGP4","ARG_OF_PERICENTER":"77.0874","PERIOD":"95.594","INCLINATION":"53.0534","TIME_SYSTEM":"UTC","APOAPSIS":"548.240","MEAN_MOTION_DOT":"0.00020051","TLE_LINE1":"1 46782U 20074AV  23095.37481077  .00020051  00000-0  13620-2 0  9998","TLE_LINE2":"2 46782  53.0534  71.9561 0001378  77.0874 283.0269 15.06376602135645","COUNTRY_CODE":"US","MEAN_MOTION":"15.06376602","CENTER_NAME":"EARTH","DECAY_DATE":null,"PERIAPSIS":"546.331","ECCENTRICITY":"0.00013780","REV_AT_EPOCH":"13564","BSTAR":"0.00136200000000","CLASSIFICATION_TYPE":"U","OBJECT_ID":"2020-074AV","LAUNCH_DATE":"2020-10-24","ELEMENT_SET_NO":"999","EPOCH":"2023-04-05T08:59:43.650528","OBJECT_NAME":"STARLINK-1835","RCS_SIZE":"LARGE","GP_ID":"229534093","REF_FRAME":"TEME","SEMIMAJOR_AXIS":"6925.420"},{"BSTAR":"0.00010751000000","OBJECT_ID":"2020-074AW","CLASSIFICATION_TYPE":"U","RCS_SIZE":"LARGE","GP_ID":"229534343","REF_FRAME":"TEME","OBJECT_NAME":"STARLINK-1851","EPOCH":"2023-04-05T07:45:24.755616","LAUNCH_DATE":"2020-10-24","ELEMENT_SET_NO":"999","SEMIMAJOR_AXIS":"6925.365","MEAN_MOTION":"15.06394569","COUNTRY_CODE":"US","TLE_LINE2":"2 46783  53.0560  72.1841 0001255  92.0673 268.0459 15.06394569135632","CENTER_NAME":"EARTH","REV_AT_EPOCH":"13563","ECCENTRICITY":"0.00012550","PERIAPSIS":"546.361","DECAY_DATE":null,"TIME_SYSTEM":"UTC","MEAN_MOTION_DOT":"0.00001320","APOAPSIS":"548.099","TLE_LINE1":"1 46783U 20074AW  23095.32320319  .00001320  00000-0  10751-3 0  9996","FILE":"3880853","MEAN_MOTION_DDOT":"0.0000000000000","OBJECT_TYPE":"PAYLOAD","RA_OF_ASC_NODE":"72.1841","EPHEMERIS_TYPE":"0","SITE":"AFETR","INCLINATION":"53.0560","PERIOD":"95.592","ARG_OF_PERICENTER":"92.0673","MEAN_ELEMENT_THEORY":"SGP4","NORAD_CAT_ID":"46783","MEAN_ANOMALY":"268.0459"},{"TLE_LINE2":"2 46784  53.0538  72.4669 0001613  67.5190 292.5969 15.06376235135625","COUNTRY_CODE":"US","MEAN_MOTION":"15.06376235","CENTER_NAME":"EARTH","PERIAPSIS":"546.169","DECAY_DATE":null,"REV_AT_EPOCH":"13562","ECCENTRICITY":"0.00016130","BSTAR":"0.00149820000000","CLASSIFICATION_TYPE":"U","OBJECT_ID":"2020-074AX","ELEMENT_SET_NO":"999","LAUNCH_DATE":"2020-10-24","EPOCH":"2023-04-05T06:13:50.116512","REF_FRAME":"TEME","GP_ID":"229534583","RCS_SIZE":"LARGE","OBJECT_NAME":"STARLINK-1882","SEMIMAJOR_AXIS":"6925.421","FILE":"3880853","MEAN_MOTION_DDOT":"0.0000000000000","RA_OF_ASC_NODE":"72.4669","EPHEMERIS_TYPE":"0","OBJECT_TYPE":"PAYLOAD","SITE":"AFETR","MEAN_ELEMENT_THEORY":"SGP4","NORAD_CAT_ID":"46784","MEAN_ANOMALY":"292.5969","PERIOD":"95.594","INCLINATION":"53.0538","ARG_OF_PERICENTER":"67.5190","TIME_SYSTEM":"UTC","MEAN_MOTION_DOT":"0.00022090","APOAPSIS":"548.403","TLE_LINE1":"1 46784U 20074AX  23095.25960783  .00022090  00000-0  14982-2 0  9990"}];
